NORAD_CAT_ID,OBJECT_NAME,OBJECT_TYPE,EPOCH,MEAN_MOTION,ECCENTRICITY,INCLINATION,RA_OF_ASC_NODE,ARG_OF_PERICENTER,MEAN_ANOMALY,BSTAR,MEAN_MOTION_DOT,MEAN_MOTION_DDOT,TLE_LINE0,TLE_LINE1,TLE_LINE2,SEMIMAJOR_AXIS,PERIOD,APOGEE,PERIGEE,DECAYED
52278.0,STARLINK-3780,PAYLOAD,2024-01-12 09:42:29,15.08843723,0.000165,53.2183,43.3822,79.4047,280.7131,-1.1174e-05,-4.66e-06,0.0,0 STARLINK-3780,1 52278U 22041T   24012.40451314 -.00000466  00000-0 -11174-4 0  9990,2 52278  53.2183  43.3822 0001650  79.4047 280.7131 15.08843723 95516,6917.869,95.437,540.875,538.593,0.0
52278.0,STARLINK-3780,PAYLOAD,2024-01-13 11:08:40,15.08847953,0.0001538,53.2164,38.6223,98.4408,261.6758,0.00020979,3.053e-05,0.0,0 STARLINK-3780,1 52278U 22041T   24013.46435186  .00003053  00000-0  20979-3 0  9991,2 52278  53.2164  38.6223 0001538  98.4408 261.6758 15.08847953 96898,6917.856,95.437,540.785,538.657,0.0
52278.0,STARLINK-3780,PAYLOAD,2024-01-14 04:37:55,15.0883664,0.0002231,53.2169,35.3488,131.2735,228.8449,5.3556e-06,-2.03e-06,0.0,0 STARLINK-3780,1 52278U 22041T   24014.19299857 -.00000203  00000-0  53556-5 0  9999,2 52278  53.2169  35.3488 0002231 131.2735 228.8449 15.08836640 97007,6917.891,95.438,541.299,538.212,0.0
52278.0,STARLINK-3780,PAYLOAD,2024-01-14 10:59:27,15.08841264,0.0001609,53.2171,34.161,102.6507,257.4665,0.0001392,1.928e-05,0.0,0 STARLINK-3780,1 52278U 22041T   24014.45795978  .00001928  00000-0  13920-3 0  9996,2 52278  53.2171  34.1610 0001609 102.6507 257.4665 15.08841264 95825,6917.877,95.437,540.855,538.628,0.0
52278.0,STARLINK-3780,PAYLOAD,2024-01-15 10:50:14,15.08853703,0.0001564,53.2165,29.7004,107.6273,252.4891,0.00040577,6.178e-05,0.0,0 STARLINK-3780,1 52278U 22041T   24015.45155476  .00006178  00000-0  40577-3 0  9990,2 52278  53.2165  29.7004 0001564 107.6273 252.4891 15.08853703 97199,6917.839,95.437,540.785,538.622,0.0
52278.0,STARLINK-3780,PAYLOAD,2024-01-16 10:41:02,15.08838421,0.0001445,53.218,25.2402,95.9517,264.164,5.3741e-05,5.67e-06,0.0,0 STARLINK-3780,1 52278U 22041T   24016.44516346  .00000567  00000-0  53741-4 0  9991,2 52278  53.2180  25.2402 0001445  95.9517 264.1640 15.08838421 97346,6917.885,95.438,540.75,538.751,0.0
52278.0,STARLINK-3780,PAYLOAD,2024-01-17 07:21:02,15.08842008,0.0001591,53.2192,21.3742,92.3734,267.7441,0.00020334,2.95e-05,0.0,0 STARLINK-3780,1 52278U 22041T   24017.30628461  .00002950  00000-0  20334-3 0  9998,2 52278  53.2192  21.3742 0001591  92.3734 267.7441 15.08842008 96250,6917.874,95.437,540.84,538.639,0.0
52278.0,STARLINK-3780,PAYLOAD,2024-01-18 04:01:03,15.08841532,0.0001477,53.2172,17.5056,91.9133,268.2028,0.00012932,1.771e-05,0.0,0 STARLINK-3780,1 52278U 22041T   24018.16740564  .00001771  00000-0  12932-3 0  9997,2 52278  53.2172  17.5056 0001477  91.9133 268.2028 15.08841532 97602,6917.876,95.437,540.762,538.719,0.0
52278.0,STARLINK-3780,PAYLOAD,2024-01-18 10:22:36,15.0884721,0.0001492,53.2174,16.3205,78.6308,281.4852,0.00022744,3.334e-05,0.0,0 STARLINK-3780,1 52278U 22041T   24018.43236385  .00003334  00000-0  22744-3 0  9997,2 52278  53.2174  16.3205 0001492  78.6308 281.4852 15.08847210 96420,6917.858,95.437,540.755,538.691,0.0
52278.0,STARLINK-3780,PAYLOAD,2024-01-18 21:30:17,15.08864442,0.0001515,53.2168,14.2414,89.586,270.5306,0.00048578,7.457e-05,0.0,0 STARLINK-3780,1 52278U 22041T   24018.89603358  .00007457  00000-0  48578-3 0  9998,2 52278  53.2168  14.2414 0001515  89.5860 270.5306 15.08864442 96498,6917.806,95.436,540.719,538.623,0.0
52278.0,STARLINK-3780,PAYLOAD,2024-01-19 08:37:59,15.08835228,0.0001421,53.2171,12.1573,101.985,258.1302,-0.0001291,-2.342e-05,0.0,0 STARLINK-3780,1 52278U 22041T   24019.35972193 -.00002342  00000-0 -12910-3 0  9997,2 52278  53.2171  12.1573 0001421 101.9850 258.1302 15.08835228 97780,6917.895,95.438,540.743,538.777,0.0
52278.0,STARLINK-3780,PAYLOAD,2024-01-20 06:53:23,15.08847785,0.0001436,53.2175,7.9938,93.7069,266.4087,0.00017003,2.42e-05,0.0,0 STARLINK-3780,1 52278U 22041T   24020.28708014  .00002420  00000-0  17003-3 0  9993,2 52278  53.2175   7.9938 0001436  93.7069 266.4087 15.08847785 97926,6917.857,95.437,540.715,538.728,0.0
52278.0,STARLINK-3780,PAYLOAD,2024-01-21 03:33:24,15.08839965,0.0001645,53.2169,4.1283,117.4374,242.6786,0.00027842,4.146e-05,0.0,0 STARLINK-3780,1 52278U 22041T   24021.14820470  .00004146  00000-0  27842-3 0  9999,2 52278  53.2169   4.1283 0001645 117.4374 242.6786 15.08839965 98054,6917.88,95.438,540.883,538.608,0.0
52278.0,STARLINK-3780,PAYLOAD,2024-01-21 05:08:47,15.08843326,0.0001657,53.2162,3.8308,119.2707,240.8451,0.00031586,4.743e-05,0.0,0 STARLINK-3780,1 52278U 22041T   24021.21444342  .00004743  00000-0  31586-3 0  9990,2 52278  53.2162   3.8308 0001657 119.2707 240.8451 15.08843326 96844,6917.87,95.437,540.882,538.589,0.0
52278.0,STARLINK-3780,PAYLOAD,2024-01-21 08:19:34,15.08846339,0.0001615,53.2182,3.2315,96.056,264.0616,0.00045963,7.036e-05,0.0,0 STARLINK-3780,1 52278U 22041T   24021.34692448  .00007036  00000-0  45963-3 0  9998,2 52278  53.2182   3.2315 0001615  96.0560 264.0616 15.08846339 96861,6917.861,95.437,540.843,538.609,0.0
52278.0,STARLINK-3780,PAYLOAD,2024-01-22 04:59:35,15.08843229,0.0001632,53.2178,359.3707,92.4925,267.6254,0.00025664,3.799e-05,0.0,0 STARLINK-3780,1 52278U 22041T   24022.20804688  .00003799  00000-0  25664-3 0  9993,2 52278  53.2178 359.3707 0001632  92.4925 267.6254 15.08843229 96996,6917.871,95.437,540.865,538.607,0.0
52278.0,STARLINK-3780,PAYLOAD,2024-01-22 08:10:21,15.08846145,0.0001647,53.2178,358.7741,96.3276,263.7904,0.00033396,5.032e-05,0.0,0 STARLINK-3780,1 52278U 22041T   24022.34052612  .00005032  00000-0  33396-3 0  9993,2 52278  53.2178 358.7741 0001647  96.3276 263.7904 15.08846145 98233,6917.862,95.437,540.866,538.587,0.0
52278.0,STARLINK-3780,PAYLOAD,2024-01-23 03:14:59,15.08841005,0.0001818,53.2188,355.2031,107.1907,252.9284,0.00016917,2.405e-05,0.0,0 STARLINK-3780,1 52278U 22041T   24023.13540887  .00002405  00000-0  16917-3 0  9998,2 52278  53.2188 355.2031 0001818 107.1907 252.9284 15.08841005 98354,6917.877,95.437,541.0,538.485,0.0
52278.0,STARLINK-3780,PAYLOAD,2024-01-23 04:50:22,15.08844944,0.0001676,53.2187,354.9052,103.3145,256.8034,0.00022447,3.287e-05,0.0,0 STARLINK-3780,1 52278U 22041T   24023.20164698  .00003287  00000-0  22447-3 0  9992,2 52278  53.2187 354.9052 0001676 103.3145 256.8034 15.08844944 97143,6917.865,95.437,540.89,538.571,0.0
52278.0,STARLINK-3780,PAYLOAD,2024-01-24 04:41:09,15.08846772,0.0001587,53.219,350.4455,96.1917,263.9256,0.00019996,2.896e-05,0.0,0 STARLINK-3780,1 52278U 22041T   24024.19524719  .00002896  00000-0  19996-3 0  9995,2 52278  53.2190 350.4455 0001587  96.1917 263.9256 15.08846772 98510,6917.86,95.437,540.823,538.627,0.0
52278.0,STARLINK-3780,PAYLOAD,2024-01-25 02:56:33,15.08843208,0.0001647,53.2191,346.2911,106.1518,253.9656,5.9801e-05,6.64e-06,0.0,0 STARLINK-3780,1 52278U 22041T   24025.12260874  .00000664  00000-0  59801-4 0  9999,2 52278  53.2191 346.2911 0001647 106.1518 253.9656 15.08843208 98656,6917.871,95.437,540.875,538.596,0.0
52278.0,STARLINK-3780,PAYLOAD,2024-01-26 02:47:20,15.08838936,0.0001505,53.2182,341.8264,107.7207,252.3949,6.4136e-05,7.33e-06,0.0,0 STARLINK-3780,1 52278U 22041T   24026.11621216  .00000733  00000-0  64136-4 0  9994,2 52278  53.2182 341.8264 0001505 107.7207 252.3949 15.08838936 98800,6917.884,95.438,540.79,538.707,0.0
52278.0,STARLINK-3780,PAYLOAD,2024-01-26 04:22:43,15.08841394,0.0001374,53.2176,341.5325,92.8043,267.3106,3.1526e-05,2.14e-06,0.0,0 STARLINK-3780,1 52278U 22041T   24026.18245213  .00000214  00000-0  31526-4 0  9991,2 52278  53.2176 341.5325 0001374  92.8043 267.3106 15.08841394 97592,6917.876,95.437,540.692,538.791,0.0
52278.0,STARLINK-3780,PAYLOAD,2024-01-27 04:13:31,15.08825935,0.0001574,53.2179,337.0713,99.8203,260.2967,0.00067541,0.00010473,0.0,0 STARLINK-3780,1 52278U 22041T   24027.17606389  .00010473  00000-0  67541-3 0  9999,2 52278  53.2179 337.0713 0001574  99.8203 260.2967 15.08825935 98965,6917.923,95.438,540.877,538.699,0.0
52278.0,STARLINK-3780,PAYLOAD,2024-01-27 20:07:22,15.08837598,0.0001491,53.2192,334.0994,92.2405,267.8758,0.00026373,3.912e-05,0.0,0 STARLINK-3780,1 52278U 22041T   24027.83845893  .00003912  00000-0  26373-3 0  9995,2 52278  53.2192 334.0994 0001491  92.2405 267.8758 15.08837598 97842,6917.888,95.438,540.784,538.721,0.0
52278.0,STARLINK-3780,PAYLOAD,2024-01-28 02:28:56,15.08816988,0.0001618,53.2185,332.9097,94.991,265.1267,0.00090731,0.00014172,0.0,0 STARLINK-3780,1 52278U 22041T   24028.10342980  .00014172  00000-0  90731-3 0  9994,2 52278  53.2185 332.9097 0001618  94.9910 265.1267 15.08816988 99103,6917.951,95.439,540.935,538.696,0.0
52278.0,STARLINK-3780,PAYLOAD,2024-01-28 05:39:41,15.08849183,0.0001526,53.2184,332.3131,103.3231,256.7932,0.00024252,3.575e-05,0.0,0 STARLINK-3780,1 52278U 22041T   24028.23589224  .00003575  00000-0  24252-3 0  9992,2 52278  53.2184 332.3131 0001526 103.3231 256.7932 15.08849183 99124,6917.852,95.437,540.773,538.662,0.0
52278.0,STARLINK-3780,PAYLOAD,2024-01-29 02:19:41,15.08844515,0.0002155,53.2199,328.4418,135.1027,225.014,7.0721e-05,8.38e-06,0.0,0 STARLINK-3780,1 52278U 22041T   24029.09701332  .00000838  00000-0  70721-4 0  9995,2 52278  53.2199 328.4418 0002155 135.1027 225.0140 15.08844515 99257,6917.867,95.437,541.222,538.241,0.0
52278.0,STARLINK-3780,PAYLOAD,2024-01-29 19:48:56,15.08845019,0.0001528,53.2189,325.1769,89.8457,270.271,6.6079e-05,7.64e-06,0.0,0 STARLINK-3780,1 52278U 22041T   24029.82565547  .00000764  00000-0  66079-4 0  9991,2 52278  53.2189 325.1769 0001528  89.8457 270.2710 15.08845019 98146,6917.865,95.437,540.787,538.673,0.0
52278.0,STARLINK-3780,PAYLOAD,2024-01-30 05:21:14,15.08851224,0.0001439,53.2191,323.3904,101.6983,258.4171,7.1243e-05,8.46e-06,0.0,0 STARLINK-3780,1 52278U 22041T   24030.22308951  .00000846  00000-0  71243-4 0  9991,2 52278  53.2191 323.3904 0001439 101.6983 258.4171 15.08851224 99424,6917.846,95.437,540.707,538.716,0.0
